[{"OBJECT_NAME":"STARLINK-30864","OBJECT_ID":"2023-171P","EPOCH":"2026-03-09T22:00:01.999584","MEAN_MOTION":15.19809403,"ECCENTRICITY":0.00019525,"INCLINATION":43,"RA_OF_ASC_NODE":283.8256,"ARG_OF_PERICENTER":283.3772,"MEAN_ANOMALY":326.7357,"EPHEMERIS_TYPE":0,"CLASSIFICATION_TYPE":"U","NORAD_CAT_ID":58243,"ELEMENT_SET_NO":999,"REV_AT_EPOCH":573,"BSTAR":0.09583065,"MEAN_MOTION_DOT":0.02319339,"MEAN_MOTION_DDOT":0},{"OBJECT_NAME":"SL-19 R\/B","OBJECT_ID":"2011-005B","EPOCH":"2026-03-09T21:50:35.538720","MEAN_MOTION":15.57556472,"ECCENTRICITY":0.01260184,"INCLINATION":99.3438,"RA_OF_ASC_NODE":178.5978,"ARG_OF_PERICENTER":174.8144,"MEAN_ANOMALY":185.4445,"EPHEMERIS_TYPE":0,"CLASSIFICATION_TYPE":"U","NORAD_CAT_ID":37363,"ELEMENT_SET_NO":999,"REV_AT_EPOCH":82354,"BSTAR":0.00054776137,"MEAN_MOTION_DOT":0.00058791,"MEAN_MOTION_DDOT":0}]
